NORAD_CAT_ID,OBJECT_NAME,OBJECT_TYPE,EPOCH,MEAN_MOTION,ECCENTRICITY,INCLINATION,RA_OF_ASC_NODE,ARG_OF_PERICENTER,MEAN_ANOMALY,BSTAR,MEAN_MOTION_DOT,MEAN_MOTION_DDOT,TLE_LINE0,TLE_LINE1,TLE_LINE2,SEMIMAJOR_AXIS,PERIOD,APOGEE,PERIGEE,DECAYED
50185.0,STARLINK-3279,PAYLOAD,2023-03-26 03:48:43,15.08831597,0.0001543,53.2179,55.3208,89.7173,270.3996,0.00022153,3.239e-05,0.0,0 STARLINK-3279,1 50185U 21125AF  23085.15884094  .00003239  00000-0  22153-3 0  9990,2 50185  53.2179  55.3208 0001543  89.7173 270.3996 15.08831597 73158,6917.906,95.438,540.839,538.704,0.0
50185.0,STARLINK-3279,PAYLOAD,2023-03-26 10:10:16,15.08844599,0.0001353,53.2175,54.1309,89.6075,270.5072,0.0004615,7.065e-05,0.0,0 STARLINK-3279,1 50185U 21125AF  23085.42379895  .00007065  00000-0  46150-3 0  9992,2 50185  53.2175  54.1309 0001353  89.6075 270.5072 15.08844599 73199,6917.866,95.437,540.667,538.795,0.0
50185.0,STARLINK-3279,PAYLOAD,2023-03-27 03:39:30,15.08838469,0.0001167,53.2168,50.8602,90.3803,269.7323,0.00021971,3.21e-05,0.0,0 STARLINK-3279,1 50185U 21125AF  23086.15244194  .00003210  00000-0  21971-3 0  9998,2 50185  53.2168  50.8602 0001167  90.3803 269.7323 15.08838469 73302,6917.885,95.438,540.557,538.943,0.0
50185.0,STARLINK-3279,PAYLOAD,2023-03-27 10:01:02,15.08856921,0.0001032,53.2166,49.6697,102.6514,257.4594,0.00062385,9.659e-05,0.0,0 STARLINK-3279,1 50185U 21125AF  23086.41739556  .00009659  00000-0  62385-3 0  9995,2 50185  53.2166  49.6697 0001032 102.6514 257.4594 15.08856921 73348,6917.829,95.436,540.408,538.98,0.0
50185.0,STARLINK-3279,PAYLOAD,2023-03-27 21:08:45,15.08834739,0.0001103,53.218,47.5916,48.2638,311.8449,-5.6826e-06,-3.78e-06,0.0,0 STARLINK-3279,1 50185U 21125AF  23086.88108425 -.00000378  00000-0 -56826-5 0  9997,2 50185  53.2180  47.5916 0001103  48.2638 311.8449 15.08834739 73411,6917.896,95.438,540.525,538.998,0.0
50185.0,STARLINK-3279,PAYLOAD,2023-03-28 03:30:17,15.08854538,0.0001029,53.217,46.3994,85.5745,274.5365,0.0011475,0.00018029,0.0,0 STARLINK-3279,1 50185U 21125AF  23087.14603922  .00018029  00000-0  11475-2 0  9997,2 50185  53.2170  46.3994 0001029  85.5745 274.5365 15.08854538 73458,6917.836,95.437,540.413,538.989,0.0
50185.0,STARLINK-3279,PAYLOAD,2023-03-29 00:10:18,15.0885672,0.0001211,53.2188,42.5332,127.8245,232.2857,0.0014083,0.00022206,0.0,0 STARLINK-3279,1 50185U 21125AF  23088.00716008  .00022206  00000-0  14083-2 0  9993,2 50185  53.2188  42.5332 0001211 127.8245 232.2857 15.08856720 73585,6917.829,95.436,540.532,538.857,0.0
50185.0,STARLINK-3279,PAYLOAD,2023-03-29 06:31:50,15.08861899,0.000109,53.2157,41.3438,97.887,262.2246,0.0010886,0.0001709,0.0,0 STARLINK-3279,1 50185U 21125AF  23088.27211774  .00017090  00000-0  10886-2 0  9994,2 50185  53.2157  41.3438 0001090  97.8870 262.2246 15.08861899 74107,6917.813,95.436,540.432,538.924,0.0
50185.0,STARLINK-3279,PAYLOAD,2023-03-30 03:11:51,15.08853931,0.0001327,53.217,37.4783,119.655,240.4574,0.0012076,0.0001899,0.0,0 STARLINK-3279,1 50185U 21125AF  23089.13323944  .00018990  00000-0  12076-2 0  9996,2 50185  53.2170  37.4783 0001327 119.6550 240.4574 15.08853931 73752,6917.838,95.437,540.621,538.785,0.0
50185.0,STARLINK-3279,PAYLOAD,2023-03-31 06:13:25,15.08858797,0.0001093,53.216,32.4229,108.7384,251.3726,0.0016169,0.00025552,0.0,0 STARLINK-3279,1 50185U 21125AF  23090.25932339  .00025552  00000-0  16169-2 0  9994,2 50185  53.2160  32.4229 0001093 108.7384 251.3726 15.08858797 73929,6917.823,95.436,540.444,538.932,0.0
50185.0,STARLINK-3279,PAYLOAD,2023-03-31 20:31:54,15.08840391,0.0001455,53.218,29.7477,95.2554,264.8605,0.0010299,0.00016141,0.0,0 STARLINK-3279,1 50185U 21125AF  23090.85548619  .00016141  00000-0  10299-2 0  9996,2 50185  53.2180  29.7477 0001455  95.2554 264.8605 15.08840391 74013,6917.879,95.438,540.751,538.738,0.0
50185.0,STARLINK-3279,PAYLOAD,2023-04-01 06:04:12,15.08855782,0.0001291,53.2181,27.9625,103.5408,256.5728,0.00096648,0.00015134,0.0,0 STARLINK-3279,1 50185U 21125AF  23091.25292190  .00015134  00000-0  96648-3 0  9995,2 50185  53.2181  27.9625 0001291 103.5408 256.5728 15.08855782 74551,6917.832,95.437,540.59,538.804,0.0
50185.0,STARLINK-3279,PAYLOAD,2023-04-01 15:36:31,15.08842025,0.000227,53.217,26.1783,131.9492,228.1694,0.00026926,4e-05,0.0,0 STARLINK-3279,1 50185U 21125AF  23091.65036101  .00004000  00000-0  26926-3 0  9999,2 50185  53.2170  26.1783 0002270 131.9492 228.1694 15.08842025 74138,6917.874,95.437,541.31,538.169,0.0
50185.0,STARLINK-3279,PAYLOAD,2023-04-02 02:44:13,15.08834484,7.93e-05,53.2174,24.0987,70.197,289.9107,0.000402,6.115e-05,0.0,0 STARLINK-3279,1 50185U 21125AF  23092.11404905  .00006115  00000-0  40200-3 0  9992,2 50185  53.2174  24.0987 0000793  70.1970 289.9107 15.08834484 74200,6917.897,95.438,540.311,539.214,0.0
50185.0,STARLINK-3279,PAYLOAD,2023-04-02 13:51:56,15.08834649,7.53e-05,53.2174,22.0174,59.4824,300.6242,0.00046775,7.163e-05,0.0,0 STARLINK-3279,1 50185U 21125AF  23092.57773202  .00007163  00000-0  46775-3 0  9998,2 50185  53.2174  22.0174 0000753  59.4824 300.6242 15.08834649 74754,6917.897,95.438,540.283,539.241,0.0
50185.0,STARLINK-3279,PAYLOAD,2023-04-03 04:10:24,15.08851044,9.44e-05,53.2164,19.3419,82.7087,277.4012,0.000636,9.852e-05,0.0,0 STARLINK-3279,1 50185U 21125AF  23093.17388949  .00009852  00000-0  63600-3 0  9998,2 50185  53.2164  19.3419 0000944  82.7087 277.4012 15.08851044 74367,6917.847,95.437,540.365,539.059,0.0
50185.0,STARLINK-3279,PAYLOAD,2023-04-04 02:25:47,15.08850618,0.0001318,53.2176,15.176,75.5563,284.5576,0.00036889,5.59e-05,0.0,0 STARLINK-3279,1 50185U 21125AF  23094.10124785  .00005590  00000-0  36889-3 0  9992,2 50185  53.2176  15.1760 0001318  75.5563 284.5576 15.08850618 74504,6917.848,95.437,540.625,538.801,0.0
50185.0,STARLINK-3279,PAYLOAD,2023-04-05 00:41:11,15.08841918,0.0001123,53.2174,11.0119,105.1844,254.9272,0.00011978,1.619e-05,0.0,0 STARLINK-3279,1 50185U 21125AF  23095.02860953  .00001619  00000-0  11978-3 0  9998,2 50185  53.2174  11.0119 0001123 105.1844 254.9272 15.08841918 74643,6917.875,95.437,540.516,538.963,0.0
50185.0,STARLINK-3279,PAYLOAD,2023-04-05 21:21:12,15.08842796,0.0001219,53.218,7.148,74.6722,285.4405,6.5979e-05,7.62e-06,0.0,0 STARLINK-3279,1 50185U 21125AF  23095.88973226  .00000762  00000-0  65979-4 0  9999,2 50185  53.2180   7.1480 0001219  74.6722 285.4405 15.08842796 75258,6917.872,95.437,540.58,538.894,0.0
50185.0,STARLINK-3279,PAYLOAD,2023-04-06 05:18:08,15.08853572,0.0001194,53.2173,5.662,89.4685,270.6444,0.00034853,5.265e-05,0.0,0 STARLINK-3279,1 50185U 21125AF  23096.22092744  .00005265  00000-0  34853-3 0  9994,2 50185  53.2173   5.6620 0001194  89.4685 270.6444 15.08853572 74828,6917.839,95.437,540.53,538.878,0.0
50185.0,STARLINK-3279,PAYLOAD,2023-04-06 21:12:00,15.08837493,0.0001354,53.2172,2.6885,84.9891,275.1256,0.00016733,2.376e-05,0.0,0 STARLINK-3279,1 50185U 21125AF  23096.88333727  .00002376  00000-0  16733-3 0  9992,2 50185  53.2172   2.6885 0001354  84.9891 275.1256 15.08837493 74920,6917.888,95.438,540.69,538.816,0.0
50185.0,STARLINK-3279,PAYLOAD,2023-04-07 05:08:55,15.08854861,0.0001291,53.2173,1.2023,74.6153,285.4982,0.00084703,0.00013224,0.0,0 STARLINK-3279,1 50185U 21125AF  23097.21453311  .00013224  00000-0  84703-3 0  9998,2 50185  53.2173   1.2023 0001291  74.6153 285.4982 15.08854861 74970,6917.835,95.437,540.593,538.807,0.0
50185.0,STARLINK-3279,PAYLOAD,2023-04-07 21:02:47,15.08844441,0.0001331,53.2172,358.2296,79.3563,280.7579,0.0007228,0.00011235,0.0,0 STARLINK-3279,1 50185U 21125AF  23097.87693537  .00011235  00000-0  72280-3 0  9993,2 50185  53.2172 358.2296 0001331  79.3563 280.7579 15.08844441 75073,6917.867,95.437,540.653,538.811,0.0
50185.0,STARLINK-3279,PAYLOAD,2023-04-08 03:24:19,15.08866407,0.0001218,53.2173,357.0395,80.6092,279.5038,0.0011719,0.00018425,0.0,0 STARLINK-3279,1 50185U 21125AF  23098.14189025  .00018425  00000-0  11719-2 0  9993,2 50185  53.2173 357.0395 0001218  80.6092 279.5038 15.08866407 75114,6917.8,95.436,540.507,538.822,0.0
50185.0,STARLINK-3279,PAYLOAD,2023-04-08 19:18:10,15.08846114,8.13e-05,53.2169,354.0663,93.4259,266.6826,0.0010247,0.0001606,0.0,0 STARLINK-3279,1 50185U 21125AF  23098.80429328  .00016060  00000-0  10247-2 0  9997,2 50185  53.2169 354.0663 0000813  93.4259 266.6826 15.08846114 75217,6917.862,95.437,540.289,539.164,0.0
50185.0,STARLINK-3279,PAYLOAD,2023-04-09 03:15:06,15.08849701,8.47e-05,53.2168,352.5795,90.2176,269.8914,0.0011386,0.00017884,0.0,0 STARLINK-3279,1 50185U 21125AF  23099.13549267  .00017884  00000-0  11386-2 0  9999,2 50185  53.2168 352.5795 0000847  90.2176 269.8914 15.08849701 75741,6917.851,95.437,540.302,539.13,0.0
50185.0,STARLINK-3279,PAYLOAD,2023-04-09 19:08:58,15.08836802,0.0001121,53.2168,349.6046,96.0089,264.1031,0.00053952,8.308e-05,0.0,0 STARLINK-3279,1 50185U 21125AF  23099.79789625  .00008308  00000-0  53952-3 0  9992,2 50185  53.2168 349.6046 0001121  96.0089 264.1031 15.08836802 75847,6917.89,95.438,540.531,538.98,0.0
50185.0,STARLINK-3279,PAYLOAD,2023-04-09 20:44:21,15.08840406,9.17e-05,53.2165,349.3077,105.2796,254.8298,0.00027002,4.012e-05,0.0,0 STARLINK-3279,1 50185U 21125AF  23099.86413478  .00004012  00000-0  27002-3 0  9995,2 50185  53.2165 349.3077 0000917 105.2796 254.8298 15.08840406 75379,6917.879,95.438,540.379,539.11,0.0
50185.0,STARLINK-3279,PAYLOAD,2023-04-10 01:30:30,15.08847714,8.49e-05,53.216,348.4173,101.5677,258.5411,0.00046538,7.128e-05,0.0,0 STARLINK-3279,1 50185U 21125AF  23100.06285365  .00007128  00000-0  46538-3 0  9998,2 50185  53.2160 348.4173 0000849 101.5677 258.5411 15.08847714 75885,6917.857,95.437,540.309,539.134,0.0
50185.0,STARLINK-3279,PAYLOAD,2023-04-10 22:10:31,15.08844237,8.5e-05,53.2162,344.5492,101.9115,258.1972,0.00020448,2.968e-05,0.0,0 STARLINK-3279,1 50185U 21125AF  23100.92397275  .00002968  00000-0  20448-3 0  9996,2 50185  53.2162 344.5492 0000850 101.9115 258.1972 15.08844237 75538,6917.867,95.437,540.32,539.144,0.0
